start=new Date('2022-08-15T00:00:00.000Z').valueOf();
sats=[{"PERIAPSIS":"546.184","TLE_LINE2":"2 47662  53.0555 143.2699 0001521  66.6723 293.4426 15.06392274 83801","MEAN_ELEMENT_THEORY":"SGP4","MEAN_MOTION_DOT":"-0.00001416","OBJECT_NAME":"STARLINK-2052","LAUNCH_DATE":"2021-02-16","RCS_SIZE":"LARGE","CLASSIFICATION_TYPE":"U","FILE":"3536350","RA_OF_ASC_NODE":"143.2699","ARG_OF_PERICENTER":"66.6723","TIME_SYSTEM":"UTC","DECAY_DATE":null,"MEAN_MOTION":"15.06392274","EPHEMERIS_TYPE":"0","OBJECT_TYPE":"PAYLOAD","SITE":"AFETR","GP_ID":"210200731","COUNTRY_CODE":"US","ECCENTRICITY":"0.00015210","MEAN_ANOMALY":"293.4426","EPOCH":"2022-08-14T04:32:56.909184","APOAPSIS":"548.291","REV_AT_EPOCH":"8380","TLE_LINE1":"1 47662U 21012AU  22226.18954756 -.00001416  00000-0 -76189-4 0  9999","PERIOD":"95.593","OBJECT_ID":"2021-012AU","REF_FRAME":"TEME","NORAD_CAT_ID":"47662","ELEMENT_SET_NO":"999","SEMIMAJOR_AXIS":"6925.372","INCLINATION":"53.0555","CENTER_NAME":"EARTH","BSTAR":"-0.00007618900000","MEAN_MOTION_DDOT":"0.0000000000000"},{"TLE_LINE1":"1 47663U 21012AV  22226.85030630 -.00000407  00000-0 -84608-5 0  9995","OBJECT_ID":"2021-012AV","PERIOD":"95.593","REF_FRAME":"TEME","GP_ID":"210232617","ECCENTRICITY":"0.00013410","COUNTRY_CODE":"US","EPOCH":"2022-08-14T20:24:26.464320","MEAN_ANOMALY":"268.9425","REV_AT_EPOCH":"8501","APOAPSIS":"548.162","BSTAR":"-0.00000846080000","MEAN_MOTION_DDOT":"0.0000000000000","NORAD_CAT_ID":"47663","SEMIMAJOR_AXIS":"6925.368","ELEMENT_SET_NO":"999","CENTER_NAME":"EARTH","INCLINATION":"53.0544","LAUNCH_DATE":"2021-02-16","RCS_SIZE":"LARGE","ARG_OF_PERICENTER":"91.1718","FILE":"3536615","RA_OF_ASC_NODE":"60.6032","CLASSIFICATION_TYPE":"U","TIME_SYSTEM":"UTC","PERIAPSIS":"546.304","MEAN_MOTION_DOT":"-0.00000407","OBJECT_NAME":"STARLINK-2053","MEAN_ELEMENT_THEORY":"SGP4","TLE_LINE2":"2 47663  53.0544  60.6032 0001341  91.1718 268.9425 15.06393619 85015","OBJECT_TYPE":"PAYLOAD","SITE":"AFETR","EPHEMERIS_TYPE":"0","DECAY_DATE":null,"MEAN_MOTION":"15.06393619"},{"ECCENTRICITY":"0.00010240","COUNTRY_CODE":"US","GP_ID":"210231368","REV_AT_EPOCH":"8390","APOAPSIS":"547.925","EPOCH":"2022-08-14T20:29:41.133984","MEAN_ANOMALY":"284.6373","TLE_LINE1":"1 47664U 21012AW  22226.85394831  .00001348  00000-0  10934-3 0  9994","REF_FRAME":"TEME","OBJECT_ID":"2021-012AW","PERIOD":"95.592","NORAD_CAT_ID":"47664","INCLINATION":"53.0555","CENTER_NAME":"EARTH","SEMIMAJOR_AXIS":"6925.351","ELEMENT_SET_NO":"999","BSTAR":"0.00010934000000","MEAN_MOTION_DDOT":"0.0000000000000","OBJECT_NAME":"STARLINK-2054","MEAN_MOTION_DOT":"0.00001348","MEAN_ELEMENT_THEORY":"SGP4","TLE_LINE2":"2 47664  53.0555 140.2900 0001024  75.4729 284.6373 15.06399166 83908","PERIAPSIS":"546.507","ARG_OF_PERICENTER":"75.4729","FILE":"3536615","RA_OF_ASC_NODE":"140.2900","CLASSIFICATION_TYPE":"U","RCS_SIZE":"LARGE","LAUNCH_DATE":"2021-02-16","TIME_SYSTEM":"UTC","EPHEMERIS_TYPE":"0","DECAY_DATE":null,"MEAN_MOTION":"15.06399166","SITE":"AFETR","OBJECT_TYPE":"PAYLOAD"},{"OBJECT_ID":"2021-012AX","PERIOD":"95.592","REF_FRAME":"TEME","TLE_LINE1":"1 47665U 21012AX  22226.76779613 -.00000107  00000-0  11740-4 0  9990","EPOCH":"2022-08-14T18:25:37.585632","MEAN_ANOMALY":"266.3784","REV_AT_EPOCH":"8395","APOAPSIS":"548.069","GP_ID":"210231618","ECCENTRICITY":"0.00012710","COUNTRY_CODE":"US","MEAN_MOTION_DDOT":"0.0000000000000","BSTAR":"0.00001174000000","SEMIMAJOR_AXIS":"6925.324","ELEMENT_SET_NO":"999","CENTER_NAME":"EARTH","INCLINATION":"53.0560","NORAD_CAT_ID":"47665","TIME_SYSTEM":"UTC","LAUNCH_DATE":"2021-02-16","RCS_SIZE":"LARGE","RA_OF_ASC_NODE":"135.7169","FILE":"3536615","ARG_OF_PERICENTER":"93.7350","CLASSIFICATION_TYPE":"U","PERIAPSIS":"546.309","MEAN_MOTION_DOT":"-0.00000107","OBJECT_NAME":"STARLINK-2056","MEAN_ELEMENT_THEORY":"SGP4","TLE_LINE2":"2 47665  53.0560 135.7169 0001271  93.7350 266.3784 15.06408096 83959","OBJECT_TYPE":"PAYLOAD","SITE":"AFETR","EPHEMERIS_TYPE":"0","DECAY_DATE":null,"MEAN_MOTION":"15.06408096"},{"MEAN_MOTION":"15.06385484","DECAY_DATE":null,"EPHEMERIS_TYPE":"0","SITE":"AFETR","OBJECT_TYPE":"PAYLOAD","TLE_LINE2":"2 47666  53.0551 136.0341 0001394  85.5401 274.5748 15.06385484 83954","MEAN_ELEMENT_THEORY":"SGP4","MEAN_MOTION_DOT":"0.00000287","OBJECT_NAME":"STARLINK-2057","PERIAPSIS":"546.293","TIME_SYSTEM":"UTC","CLASSIFICATION_TYPE":"U","RA_OF_ASC_NODE":"136.0341","FILE":"3536615","ARG_OF_PERICENTER":"85.5401","RCS_SIZE":"LARGE","LAUNCH_DATE":"2021-02-16","INCLINATION":"53.0551","CENTER_NAME":"EARTH","ELEMENT_SET_NO":"999","SEMIMAJOR_AXIS":"6925.393","NORAD_CAT_ID":"47666","MEAN_MOTION_DDOT":"0.0000000000000","BSTAR":"0.00003819000000","REV_AT_EPOCH":"8395","APOAPSIS":"548.223","MEAN_ANOMALY":"274.5748","EPOCH":"2022-08-14T18:20:23.196768","COUNTRY_CODE":"US","ECCENTRICITY":"0.00013940","GP_ID":"210231867","REF_FRAME":"TEME","PERIOD":"95.593","OBJECT_ID":"2021-012AY","TLE_LINE1":"1 47666U 21012AY  22226.76415737  .00000287  00000-0  38190-4 0  9991"},{"INCLINATION":"53.0535","CENTER_NAME":"EARTH","SEMIMAJOR_AXIS":"6925.354","ELEMENT_SET_NO":"999","NORAD_CAT_ID":"47667","MEAN_MOTION_DDOT":"0.0000000000000","BSTAR":"0.00018125000000","REV_AT_EPOCH":"8350","APOAPSIS":"548.242","EPOCH":"2022-08-14T05:19:24.496320","MEAN_ANOMALY":"292.1605","ECCENTRICITY":"0.00014760","COUNTRY_CODE":"US","GP_ID":"210199979","REF_FRAME":"TEME","OBJECT_ID":"2021-012AZ","PERIOD":"95.592","TLE_LINE1":"1 47667U 21012AZ  22226.22181130  .00002419  00000-0  18125-3 0  9994","EPHEMERIS_TYPE":"0","DECAY_DATE":null,"MEAN_MOTION":"15.06398094","OBJECT_TYPE":"PAYLOAD","SITE":"AFETR","OBJECT_NAME":"STARLINK-2058","MEAN_MOTION_DOT":"0.00002419","MEAN_ELEMENT_THEORY":"SGP4","TLE_LINE2":"2 47667  53.0535 163.1251 0001476  67.9541 292.1605 15.06398094 83508","PERIAPSIS":"546.197","TIME_SYSTEM":"UTC","RA_OF_ASC_NODE":"163.1251","FILE":"3536350","ARG_OF_PERICENTER":"67.9541","CLASSIFICATION_TYPE":"U","LAUNCH_DATE":"2021-02-16","RCS_SIZE":"LARGE"},{"MEAN_MOTION":"15.06396660","DECAY_DATE":null,"EPHEMERIS_TYPE":"0","SITE":"AFETR","OBJECT_TYPE":"PAYLOAD","PERIAPSIS":"546.299","TLE_LINE2":"2 47668  53.0542 143.8133 0001336  81.8758 278.2383 15.06396660 83786","MEAN_ELEMENT_THEORY":"SGP4","MEAN_MOTION_DOT":"-0.00001405","OBJECT_NAME":"STARLINK-2059","TIME_SYSTEM":"UTC","LAUNCH_DATE":"2021-02-16","RCS_SIZE":"LARGE","CLASSIFICATION_TYPE":"U","ARG_OF_PERICENTER":"81.8758","FILE":"3536350","RA_OF_ASC_NODE":"143.8133","ELEMENT_SET_NO":"999","SEMIMAJOR_AXIS":"6925.359","INCLINATION":"53.0542","CENTER_NAME":"EARTH","NORAD_CAT_ID":"47668","MEAN_MOTION_DDOT":"0.0000000000000","BSTAR":"-0.00007545200000","MEAN_ANOMALY":"278.2383","EPOCH":"2022-08-14T01:33:50.249088","REV_AT_EPOCH":"8378","APOAPSIS":"548.149","GP_ID":"210200229","COUNTRY_CODE":"US","ECCENTRICITY":"0.00013360","PERIOD":"95.592","OBJECT_ID":"2021-012BA","REF_FRAME":"TEME","TLE_LINE1":"1 47668U 21012BA  22226.06516492 -.00001405  00000-0 -75452-4 0  9993"},{"TIME_SYSTEM":"UTC","RCS_SIZE":"LARGE","LAUNCH_DATE":"2021-02-16","FILE":"3536615","ARG_OF_PERICENTER":"63.6386","RA_OF_ASC_NODE":"63.5636","CLASSIFICATION_TYPE":"U","PERIAPSIS":"533.777","MEAN_MOTION_DOT":"0.00014478","OBJECT_NAME":"STARLINK-2060","TLE_LINE2":"2 47669  53.0530  63.5636 0002132  63.6386 296.4824 15.10311533 84942","MEAN_ELEMENT_THEORY":"SGP4","SITE":"AFETR","OBJECT_TYPE":"PAYLOAD","EPHEMERIS_TYPE":"0","MEAN_MOTION":"15.10311533","DECAY_DATE":null,"OBJECT_ID":"2021-012BB","PERIOD":"95.345","REF_FRAME":"TEME","TLE_LINE1":"1 47669U 21012BB  22226.81185296  .00014478  00000-0  88937-3 0  9994","EPOCH":"2022-08-14T19:29:04.095744","MEAN_ANOMALY":"296.4824","APOAPSIS":"536.725","REV_AT_EPOCH":"8494","GP_ID":"210231118","ECCENTRICITY":"0.00021320","COUNTRY_CODE":"US","MEAN_MOTION_DDOT":"0.0000000000000","BSTAR":"0.00088937000000","SEMIMAJOR_AXIS":"6913.386","ELEMENT_SET_NO":"999","CENTER_NAME":"EARTH","INCLINATION":"53.0530","NORAD_CAT_ID":"47669"},{"REF_FRAME":"TEME","PERIOD":"95.592","OBJECT_ID":"2021-012BC","TLE_LINE1":"1 47670U 21012BC  22226.80972527 -.00000067  00000-0  14429-4 0  9992","APOAPSIS":"548.444","REV_AT_EPOCH":"8337","MEAN_ANOMALY":"295.0510","EPOCH":"2022-08-14T19:26:00.263328","COUNTRY_CODE":"US","ECCENTRICITY":"0.00017720","GP_ID":"210205564","MEAN_MOTION_DDOT":"0.0000000000000","BSTAR":"0.00001442900000","CENTER_NAME":"EARTH","INCLINATION":"53.0554","ELEMENT_SET_NO":"999","SEMIMAJOR_AXIS":"6925.351","NORAD_CAT_ID":"47670","TIME_SYSTEM":"UTC","CLASSIFICATION_TYPE":"U","FILE":"3536428","RA_OF_ASC_NODE":"140.4718","ARG_OF_PERICENTER":"65.0663","LAUNCH_DATE":"2021-02-16","RCS_SIZE":"LARGE","TLE_LINE2":"2 47670  53.0554 140.4718 0001772  65.0663 295.0510 15.06399045 83371","MEAN_ELEMENT_THEORY":"SGP4","OBJECT_NAME":"STARLINK-2062","MEAN_MOTION_DOT":"-0.00000067","PERIAPSIS":"545.989","SITE":"AFETR","OBJECT_TYPE":"PAYLOAD","DECAY_DATE":null,"MEAN_MOTION":"15.06399045","EPHEMERIS_TYPE":"0"},{"PERIAPSIS":"546.287","OBJECT_NAME":"STARLINK-2064","MEAN_MOTION_DOT":"-0.00000704","MEAN_ELEMENT_THEORY":"SGP4","TLE_LINE2":"2 47671  53.0537 140.5459 0001396  81.4367 278.6781 15.06386985 83894","TIME_SYSTEM":"UTC","RCS_SIZE":"LARGE","LAUNCH_DATE":"2021-02-16","RA_OF_ASC_NODE":"140.5459","FILE":"3536615","ARG_OF_PERICENTER":"81.4367","CLASSIFICATION_TYPE":"U","EPHEMERIS_TYPE":"0","DECAY_DATE":null,"MEAN_MOTION":"15.06386985","SITE":"AFETR","OBJECT_TYPE":"PAYLOAD","EPOCH":"2022-08-14T18:59:28.258656","MEAN_ANOMALY":"278.6781","APOAPSIS":"548.220","REV_AT_EPOCH":"8389","GP_ID":"210232618","ECCENTRICITY":"0.00013960","COUNTRY_CODE":"US","OBJECT_ID":"2021-012BD","PERIOD":"95.593","REF_FRAME":"TEME","TLE_LINE1":"1 47671U 21012BD  22226.79129929 -.00000704  00000-0 -28412-4 0  9997","SEMIMAJOR_AXIS":"6925.388","ELEMENT_SET_NO":"999","CENTER_NAME":"EARTH","INCLINATION":"53.0537","NORAD_CAT_ID":"47671","MEAN_MOTION_DDOT":"0.0000000000000","BSTAR":"-0.00002841200000"}];
